{  "type": "FeatureCollection",  "features": [    {      "type": "Feature",      "properties": {},      "geometry": {        "coordinates": [          [            [              9.199418615167673,              41.22658424377528            ],            [              8.5052993442238,              40.77330941424816            ],            [              8.263991776927242,              41.09401582843239            ],            [              8.134968917047956,              40.75280870081383            ],            [              8.397764918278341,              40.44101732249942            ],            [              8.41453039787288,              40.015795351583535            ],            [              8.473616034678969,              39.709496901985005            ],            [              8.24886064245149,              39.11671780535298            ],            [              8.635349998001743,              38.90604714790439            ],            [              8.876562558608725,              38.89057881373685            ],            [              9.083483084595514,              39.2604559619825            ],            [              9.556029509378675,              39.14945291963488            ],            [              9.702077573140173,              40.04552508042232            ],            [              9.613986321742857,              40.28389145146332            ],            [              9.804685411050826,              40.52974455476459            ],            [              9.51529498902832,              41.12478262425327            ],            [              9.199418615167673,              41.22658424377528            ]          ]        ],        "type": "Polygon"      }    }  ]}