{  "type": "FeatureCollection",  "features": [    {      "type": "Feature",      "properties": {},      "geometry": {        "type": "Polygon",        "coordinates": [          [            [              10.524979130725628,              43.79931272287821            ],            [              10.516964584381267,              43.79902826015186            ],            [              10.509027449444128,              43.79817761958448            ],            [              10.501244383050052,              43.79676901723798            ],            [              10.493690541395805,              43.79481605757529            ],            [              10.486438848192195,              43.79233760094185            ],            [              10.479559285583397,              43.78935757991213            ],            [              10.4731182146237,              43.78590476634846            ],            [              10.467177732070136,              43.78201249151059            ],            [              10.461795069843408,              43.77771832202012            ],            [              10.457022043036076,              43.77306369491824            ],            [              10.452904551813585,              43.76809351545284            ],            [              10.44948214196762,              43.762855721590824            ],            [              10.446787628251144,              43.75740081956561            ],            [              10.444846783958782,              43.751781395040084            ],            [              10.443678099523641,              43.74605160468594            ],            [              10.443292612191147,              43.74026665315212            ],            [              10.443693808110494,              43.7344822605149            ],            [              10.444877597462938,              43.72875412537264            ],            [              10.446832362531783,              43.72313738876575            ],            [              10.449539077917787,              43.71768610407128            ],            [              10.452971501423526,              43.71245271794075            ],            [              10.457096433476185,              43.70748756722156            ],            [              10.461874042335658,              43.70283839662926            ],            [              10.467258251748573,              43.69854990172151            ],            [              10.473197187162233,              43.69466330146858            ],            [              10.479633676109032,              43.69121594442083            ],            [              10.48650579791388,              43.68824095214682            ],            [              10.493747477466924,              43.68576690325603            ],            [              10.501289117442436,              43.683817560935275            ],            [              10.50905826303381,              43.682411646516904            ],            [              10.516980293014406,              43.681562661167746            ],            [              10.524979130725628,              43.68127875734023            ],            [              10.532977968436848,              43.681562661167746            ],            [              10.540899998417446,              43.682411646516904            ],            [              10.548669144008818,              43.683817560935275            ],            [              10.556210783984332,              43.68576690325603            ],            [              10.563452463537374,              43.68824095214682            ],            [              10.570324585342224,              43.69121594442083            ],            [              10.57676107428902,              43.69466330146858            ],            [              10.582700009702682,              43.69854990172151            ],            [              10.588084219115597,              43.70283839662926            ],            [              10.592861827975069,              43.70748756722156            ],            [              10.596986760027727,              43.71245271794075            ],            [              10.600419183533466,              43.71768610407128            ],            [              10.60312589891947,              43.72313738876575            ],            [              10.605080663988318,              43.72875412537264            ],            [              10.606264453340764,              43.7344822605149            ],            [              10.606665649260107,              43.74026665315212            ],            [              10.606280161927614,              43.74605160468594            ],            [              10.605111477492471,              43.751781395040084            ],            [              10.60317063320011,              43.75740081956561            ],            [              10.600476119483636,              43.762855721590824            ],            [              10.597053709637668,              43.76809351545284            ],            [              10.592936218415181,              43.77306369491824            ],            [              10.588163191607846,              43.77771832202012            ],            [              10.582780529381118,              43.78201249151059            ],            [              10.576840046827558,              43.78590476634846            ],            [              10.570398975867857,              43.78935757991213            ],            [              10.563519413259058,              43.79233760094185            ],            [              10.556267720055448,              43.79481605757529            ],            [              10.548713878401202,              43.79676901723798            ],            [              10.540930812007126,              43.79817761958448            ],            [              10.532993677069987,              43.79902826015186            ],            [              10.524979130725628,              43.79931272287821            ]          ]        ]      }    }  ]}