{  "type": "FeatureCollection",  "features": [    {      "type": "Feature",      "properties": {},      "geometry": {        "type": "Polygon",        "coordinates": [          [            [              10.288965556573828,              47.917915392219996            ],            [              9.93269016010867,              47.905641988649045            ],            [              9.580334470744276,              47.86895732659964            ],            [              9.235758066617821,              47.8082659261621            ],            [              8.902702077087705,              47.724234969265396            ],            [              8.584734373816806,              47.617784006334176            ],            [              8.285199770022134,              47.49007099819177            ],            [              8.007176442790326,              47.34247511148636            ],            [              7.753439458586477,              47.1765767603266            ],            [              7.526431923394961,              46.994135433630866            ],            [              7.328243924407174,              46.79706586661033            ],            [              7.160599104496995,              46.587413107708564            ],            [              7.024848433000582,              46.367327002848675            ],            [              6.9219705188866145,              46.139036571802755            ],            [              6.85257766068934,              45.90482469226508            ],            [              6.816926740767281,              45.66700344112992            ],            [              6.814934043763397,              45.42789037442578            ],            [              6.846193101380187,              45.18978596142451            ],            [              6.909994726708455,              44.954952327747264            ],            [              7.005348489878556,              44.72559340894478            ],            [              7.1310049919041525,              44.50383657121153            ],            [              7.285478405822531,              44.29171571996542            ],            [              7.467068865972085,              44.09115588971161            ],            [              7.673884391796793,              43.90395928917406            ],            [              7.903862128099082,              43.73179276309538            ],            [              8.154788766988124,              43.57617662520784            ],            [              8.424320087050685,              43.438474814471924            ],            [              8.70999960269812,              43.31988632764106            ],            [              9.009276362134829,              43.22143788454132            ],            [              9.319521967322439,              43.143977787315826            ],            [              9.63804691527735,              43.08817094061706            ],            [              9.962116378674441,              43.05449500585207            ],            [              10.288965556573828,              43.043237668779994            ],            [              10.615814734473213,              43.05449500585207            ],            [              10.939884197870306,              43.08817094061706            ],            [              11.258409145825214,              43.143977787315826            ],            [              11.568654751012822,              43.22143788454132            ],            [              11.867931510449536,              43.31988632764106            ],            [              12.153611026096971,              43.438474814471924            ],            [              12.42314234615953,              43.57617662520784            ],            [              12.674068985048573,              43.73179276309538            ],            [              12.904046721350861,              43.90395928917406            ],            [              13.110862247175566,              44.09115588971161            ],            [              13.292452707325126,              44.29171571996542            ],            [              13.446926121243502,              44.50383657121153            ],            [              13.5725826232691,              44.72559340894478            ],            [              13.667936386439196,              44.954952327747264            ],            [              13.731738011767469,              45.18978596142451            ],            [              13.762997069384257,              45.42789037442578            ],            [              13.761004372380375,              45.66700344112992            ],            [              13.725353452458315,              45.90482469226508            ],            [              13.655960594261039,              46.139036571802755            ],            [              13.553082680147073,              46.367327002848675            ],            [              13.41733200865066,              46.587413107708564            ],            [              13.249687188740483,              46.797065866610325            ],            [              13.051499189752693,              46.994135433630866            ],            [              12.824491654561179,              47.1765767603266            ],            [              12.570754670357331,              47.34247511148636            ],            [              12.292731343125523,              47.49007099819177            ],            [              11.99319673933085,              47.617784006334176            ],            [              11.67522903605995,              47.724234969265396            ],            [              11.34217304652984,              47.8082659261621            ],            [              10.99759664240338,              47.86895732659964            ],            [              10.645240953038986,              47.905641988649045            ],            [              10.288965556573828,              47.917915392219996            ]          ]        ]      }    }  ]}