{  "type": "FeatureCollection",  "features": [    {      "type": "Feature",      "properties": {},      "geometry": {        "type": "Polygon",        "coordinates": [          [            [              11.12414317200475,              43.29903041344199            ],            [              11.062534628614419,              43.29681113413294            ],            [              11.001532718972072,              43.290175152265284            ],            [              10.941737706902336,              43.27918780624875            ],            [              10.88373719944896,              43.263957230553785            ],            [              10.82810002438342,              43.24463322188864            ],            [              10.775370349915375,              43.22140567260394            ],            [              10.726062119406079,              43.19450259154413            ],            [              10.680653867466102,              43.164187737598304            ],            [              10.639583976243264,              43.1307578957171            ],            [              10.603246422238307,              43.09453982908488            ],            [              10.571987054906524,              43.055886944412876            ],            [              10.546100438900051,              43.01517570991894            ],            [              10.52582728235719,              42.972801867472334            ],            [              10.51135246441083,              42.92917648161716            ],            [              10.50280366629695,              42.88472186877485            ],            [              10.500250602287883,              42.83986744990457            ],            [              10.503704839303403,              42.79504556932868            ],            [              10.513120187570813,              42.75068732136777            ],            [              10.528393639174434,              42.707218424947705            ],            [              10.549366826775248,              42.66505518450706            ],            [              10.575827971175253,              42.624600573418135            ],            [              10.607514283698945,              42.586240473801894            ],            [              10.644114787491104,              42.55034010412953            ],            [              10.685273520690762,              42.51724066341187            ],            [              10.730593083928206,              42.48725621812891            ],            [              10.77963849458997,              42.46067085538532            ],            [              10.831941310689016,              42.43773612311839            ],            [              10.887003987849173,              42.41866877556003            ],            [              10.944304433756448,              42.40364883957282            ],            [              11.003300725346012,              42.392818014953384            ],            [              11.063435954895159,              42.38627841932349            ],            [              11.12414317200475,              42.38409168580818            ],            [              11.184850389114343,              42.38627841932349            ],            [              11.244985618663488,              42.392818014953384            ],            [              11.303981910253052,              42.40364883957282            ],            [              11.361282356160325,              42.41866877556003            ],            [              11.416345033320486,              42.43773612311839            ],            [              11.468647849419533,              42.46067085538532            ],            [              11.517693260081296,              42.48725621812891            ],            [              11.563012823318736,              42.51724066341187            ],            [              11.604171556518397,              42.55034010412953            ],            [              11.640772060310555,              42.58624047380188            ],            [              11.672458372834246,              42.624600573418135            ],            [              11.698919517234252,              42.66505518450706            ],            [              11.719892704835068,              42.707218424947705            ],            [              11.735166156438689,              42.75068732136777            ],            [              11.744581504706096,              42.79504556932868            ],            [              11.748035741721619,              42.83986744990457            ],            [              11.74548267771255,              42.88472186877485            ],            [              11.736933879598672,              42.92917648161716            ],            [              11.722459061652312,              42.972801867472334            ],            [              11.702185905109447,              43.01517570991894            ],            [              11.676299289102975,              43.055886944412876            ],            [              11.645039921771192,              43.09453982908488            ],            [              11.608702367766238,              43.1307578957171            ],            [              11.5676324765434,              43.164187737598304            ],            [              11.522224224603423,              43.19450259154413            ],            [              11.472915994094127,              43.22140567260394            ],            [              11.42018631962608,              43.24463322188864            ],            [              11.364549144560538,              43.263957230553785            ],            [              11.306548637107163,              43.27918780624875            ],            [              11.24675362503743,              43.290175152265284            ],            [              11.185751715395083,              43.29681113413294            ],            [              11.12414317200475,              43.29903041344199            ]          ]        ]      }    },    {      "type": "Feature",      "properties": {},      "geometry": {        "type": "Polygon",        "coordinates": [          [            [              11.35614755875642,              43.76671528951435            ],            [              11.310042443912778,              43.765070310084035            ],            [              11.264388861864628,              43.760151483702            ],            [              11.21963370123536,              43.752006980259964            ],            [              11.17621461899636,              43.74071653216058            ],            [              11.134555565311578,              43.72639061527065            ],            [              11.095062474253691,              43.709169316273645            ],            [              11.058119170897095,              43.68922090012289            ],            [              11.024083541392065,              43.66674009476955            ],            [              10.993284007987436,              43.64194611350231            ],            [              10.966016345737964,              43.6150804380405            ],            [              10.94254087196127,              43.58640438793233            ],            [              10.92308003355775,              43.5561965038004            ],            [              10.907816411233272,              43.52474977353489            ],            [              10.896891153619771,              43.4923687316586            ],            [              10.89040284841038,              43.45936646278553            ],            [              10.888406832034109,              43.42606154038562            ],            [              10.890914934189384,              43.39277493197521            ],            [              10.897895648813206,              43.359826901409996            ],            [              10.909274718836707,              43.32753393819854            ],            [              10.92493611839925,              43.29620574271946            ],            [              10.944723413070848,              43.26614229495228            ],            [              10.968441476056679,              43.23763103286092            ],            [              10.995858536300492,              43.210944164935235            ],            [              11.026708532825777,              43.18633613963659            ],            [              11.060693748503386,              43.16404129263648            ],            [              11.097487695654431,              43.144271690812744            ],            [              11.136738225425555,              43.12721518999584            ],            [              11.178070832647293,              43.1130337214591            ],            [              11.221092127843193,              43.101861820134566            ],            [              11.265393448140088,              43.09380540552065            ],            [              11.31055457898502,              43.08894082423739            ],            [              11.35614755875642,              43.08731416118122            ],            [              11.401740538527822,              43.08894082423739            ],            [              11.446901669372755,              43.09380540552065            ],            [              11.491202989669647,              43.101861820134566            ],            [              11.534224284865546,              43.1130337214591            ],            [              11.575556892087285,              43.12721518999584            ],            [              11.614807421858412,              43.144271690812744            ],            [              11.651601369009454,              43.16404129263648            ],            [              11.685586584687066,              43.18633613963659            ],            [              11.716436581212351,              43.210944164935235            ],            [              11.74385364145616,              43.23763103286092            ],            [              11.767571704441991,              43.26614229495228            ],            [              11.787358999113591,              43.29620574271946            ],            [              11.803020398676134,              43.32753393819854            ],            [              11.814399468699637,              43.359826901409996            ],            [              11.821380183323457,              43.39277493197521            ],            [              11.823888285478734,              43.42606154038562            ],            [              11.821892269102461,              43.45936646278553            ],            [              11.81540396389307,              43.4923687316586            ],            [              11.804478706279568,              43.52474977353489            ],            [              11.78921508395509,              43.5561965038004            ],            [              11.769754245551571,              43.58640438793233            ],            [              11.746278771774877,              43.6150804380405            ],            [              11.719011109525404,              43.64194611350231            ],            [              11.688211576120775,              43.66674009476955            ],            [              11.654175946615744,              43.68922090012289            ],            [              11.61723264325915,              43.709169316273645            ],            [              11.577739552201265,              43.72639061527065            ],            [              11.536080498516483,              43.74071653216058            ],            [              11.492661416277482,              43.752006980259964            ],            [              11.447906255648212,              43.760151483702            ],            [              11.402252673600064,              43.765070310084035            ],            [              11.35614755875642,              43.76671528951435            ]          ]        ]      }    }  ]}