{  "type": "FeatureCollection",  "features": [    {      "type": "Feature",      "properties": {},      "geometry": {        "coordinates": [          [            [              9.276583624261946,              41.20544594971619            ],            [              8.153782040031814,              41.06573835508266            ],            [              8.416827859531736,              39.958585215528416            ],            [              8.312027646167678,              38.986609836610086            ],            [              8.765355892284902,              38.898671375955274            ],            [              9.501898857001976,              39.03451066925251            ],            [              9.861850979436184,              40.5229576749617            ],            [              9.276583624261946,              41.20544594971619            ]          ]        ],        "type": "Polygon"      }    },    {      "type": "Feature",      "properties": {},      "geometry": {        "coordinates": [          [            [              12.694517988921916,              38.1345669666693            ],            [              12.42257000781072,              37.725084744993026            ],            [              15.141646909081345,              36.67853307236982            ],            [              15.229848590232677,              37.04255479736858            ],            [              14.984500587964646,              37.44622129156201            ],            [              15.499970341222962,              38.065230223931195            ],            [              15.537449437500953,              38.29216955000879            ],            [              14.77696291033098,              38.13065745031113            ],            [              13.785293836546401,              37.97455079436064            ],            [              12.694517988921916,              38.1345669666693            ]          ]        ],        "type": "Polygon"      }    },    {      "type": "Feature",      "properties": {},      "geometry": {        "coordinates": [          [            [              7.546245740005247,              43.87382893460182            ],            [              8.109916016013955,              43.972337271290286            ],            [              8.612596078685783,              44.40183286115757            ],            [              9.205071760129698,              44.38718543818615            ],            [              9.77103805377277,              44.074984054067926            ],            [              10.28078024881205,              43.87133208105308            ],            [              10.276153202466475,              43.37480543313538            ],            [              10.145600064382819,              42.75074021721525            ],            [              11.163234039074979,              42.375227537551126            ],            [              12.378983149894822,              41.5797986337989            ],            [              13.131177651040161,              41.26299741259294            ],            [              13.67449129382922,              41.24396441878187            ],            [              14.408365489412319,              40.67518841964332            ],            [              14.730534008546272,              40.678341261150536            ],            [              14.881116804898795,              40.33515457611503            ],            [              15.401660673299432,              39.98826793236239            ],            [              15.626400600333994,              40.01230538600285            ],            [              16.192023724934103,              38.93702797291732            ],            [              15.730358526205663,              38.64621710387593            ],            [              15.988790192376229,              38.4757635894876            ],            [              15.603346422516267,              38.15898949188565            ],            [              15.736533926737764,              37.938872372784516            ],            [              16.10722608746488,              38.02688372867124            ],            [              16.60692683925285,              38.5248414451726            ],            [              16.685539468996097,              38.91926787815706            ],            [              17.160025199269825,              38.938574669851874            ],            [              17.1684563971491,              39.33750979722328            ],            [              16.606146802308672,              39.79666983387949            ],            [              16.65018770958207,              40.019695042235185            ],            [              16.83728970032689,              40.42022377102438            ],            [              17.155677365676553,              40.56631665920065            ],            [              17.413116056899668,              40.3397669937134            ],            [              17.822180039793352,              40.3450421206432            ],            [              17.933303856512197,              40.18464394996275            ],            [              18.083353248222323,              39.906614928751196            ],            [              18.31178475462599,              39.88659668237054            ],            [              18.37627202035935,              40.24153084019596            ],            [              16.073862939845753,              41.480185959155875            ],            [              15.856561206246624,              41.604526237973005            ],            [              15.971350583374857,              41.746848852567325            ],            [              15.44660466278566,              41.84991767624999            ],            [              14.858873305694004,              42.10129752588864            ],            [              14.089912742098448,              42.66976505235252            ],            [              13.491638167447576,              43.63176569712823            ],            [              12.223107003823856,              44.457148237368045            ],            [              12.535400902114333,              44.969486255689674            ],            [              12.158249003902824,              45.292252538903085            ],            [              12.461806266859071,              45.547243926625754            ],            [              13.581118065129829,              45.93294606412647            ],            [              13.739495025979608,              46.53037989699439            ],            [              12.17071782083704,              47.09154703619353            ],            [              10.693407793490735,              46.88042367227408            ],            [              9.933368438904523,              46.48816352420826            ],            [              9.369619615943265,              46.487817255904105            ],            [              9.05519487758275,              45.9627064154314            ],            [              8.299928834768622,              46.33136873310343            ],            [              7.753066239054704,              45.89927850958043            ],            [              6.878414953690793,              45.81028135285288            ],            [              7.012650234735958,              45.30902930306283            ],            [              6.871209713091332,              45.00863662754904            ],            [              7.019561255052565,              44.67759683404796            ],            [              7.035399595350782,              44.36309309120844            ],            [              7.716169815659214,              44.13497020951607            ],            [              7.546245740005247,              43.87382893460182            ]          ]        ],        "type": "Polygon"      }    }  ]}   