{  "type": "FeatureCollection",  "features": [    {      "type": "Feature",      "properties": {},      "geometry": {        "coordinates": [          [            9.508892004692058,            41.382230742567145          ],          [            10.071669238416604,            40.38183041246643          ],          [            9.583826499229673,            38.927602487742945          ],          [            9.174740446833283,            39.15773166771933          ],          [            8.928155174597578,            38.748246379874985          ],          [            8.204260292585388,            39.05873498660267          ],          [            8.391447254518226,            40.18391363597061          ],          [            8.054240019244531,            41.03809533128876          ],          [            8.433538089714034,            41.2871078397925          ],          [            8.475893422246884,            40.93882024111019          ],          [            9.484410448718364,            41.38183937240865          ]        ],        "type": "LineString"      }    },    {      "type": "Feature",      "properties": {},      "geometry": {        "coordinates": [          [            12.610386939218415,            38.152370078809184          ],          [            12.256614225887716,            37.62163352871006          ],          [            15.305658931813468,            36.474551418160075          ],          [            15.418691371587897,            36.992198190234504          ],          [            15.22853238719506,            37.482370097283976          ],          [            15.606210401842503,            38.04146795610828          ],          [            15.999704892648339,            37.87709489162519          ],          [            16.700081258480225,            38.45547374592874          ],          [            16.79913293040636,            38.85748250305798          ],          [            17.498100453867778,            38.82160116656391          ],          [            16.798875579399834,            39.85436173013636          ],          [            17.088225453752187,            40.39516157507268          ],          [            17.860655100581567,            40.172542229628306          ],          [            18.190134102303006,            39.728264182831026          ],          [            18.606147798775595,            39.90824753191677          ],          [            18.66443170021975,            40.220724856218595          ],          [            16.138252330336428,            41.52257048413523          ],          [            16.344172825779793,            41.90404517447726          ],          [            15.202768149268223,            42.0498741421971          ],          [            14.034607146294604,            42.648665465979235          ],          [            13.872172898782367,            43.52541431593386          ],          [            12.540119657101457,            44.34523233001883          ],          [            12.417714708920329,            44.72358380475197          ],          [            12.786992360575255,            44.911059761182          ],          [            12.40290928892452,            45.351435439288565          ],          [            13.606966488654024,            45.68750040606824          ],          [            14.008966971981124,            46.83671117278092          ],          [            12.409800917953476,            47.13065189103801          ],          [            9.81829274859001,            46.697834024238006          ],          [            8.61742386306949,            46.47667296756566          ],          [            6.948449919056486,            45.844821691052005          ],          [            6.581226577071931,            45.10471581225303          ],          [            6.828431194168388,            44.28278684652781          ],          [            7.4886091357696785,            43.835257481603264          ],          [            8.717059924006861,            44.236912275973026          ],          [            10.181634256122464,            43.660689315995796          ],          [            9.723397099333198,            42.47291740832344          ],          [            10.796189349870843,            42.67645463039639          ],          [            11.787561784142895,            41.82161910833321          ],          [            13.176551477413483,            40.95853555469921          ],          [            14.398285143545905,            40.533993896429564          ],          [            15.29390261162294,            39.787148498424926          ],          [            15.88521259429831,            39.44243408543571          ],          [            16.094338696404918,            38.81421683471788          ],          [            15.682500080202118,            38.460769533540144          ],          [            14.8337787953256,            38.12313622891165          ],          [            13.853581537134744,            38.080057489196975          ],          [            13.236315739094493,            38.390656947889          ],          [            12.661322150791847,            38.08200493088481          ]        ],        "type": "LineString"      }    }  ]}