{  "type": "FeatureCollection",  "features": [    {      "type": "Feature",      "properties": {},      "geometry": {        "coordinates": [          [            [              14.065324139886854,              45.496632575108634            ],            [              13.693158292183512,              45.73855836075637            ],            [              13.752979691034312,              45.91690617061937            ],            [              13.66501442539743,              45.96564975486788            ],            [              13.868166438966341,              46.102410617169994            ],            [              13.540750527864276,              46.28724255107278            ],            [              13.928831417895594,              46.490493762072134            ],            [              12.617846482592114,              46.661838538295456            ],            [              12.279194580155206,              47.03376477229375            ],            [              11.596737560765803,              47.004362247651386            ],            [              11.22358150921761,              46.97567794393734            ],            [              11.094264938285448,              46.81556251779557            ],            [              10.59735910703975,              46.86003023006771            ],            [              10.528104223328967,              46.789012760721675            ],            [              10.51950608053258,              46.618253705462166            ],            [              10.245470240081914,              46.61320205315761            ],            [              10.109883267543694,              46.48040058506646            ],            [              10.192900466999788,              46.29121575965891            ],            [              10.053500370533357,              46.36465275804025            ],            [              9.71489658744406,              46.28800174110572            ],            [              9.476025096099562,              46.52292638914008            ],            [              9.307507021807709,              46.515276739350924            ],            [              9.00194061787198,              46.00799671113225            ],            [              9.037653433176416,              45.83854803439584            ],            [              8.453647072512723,              46.4204900440466            ],            [              8.661662682418154,              45.02305377428215            ],            [              9.371003165152928,              44.69914296069476            ],            [              9.429065574638912,              45.08901505611328            ],            [              10.08358139776007,              45.06311647813823            ],            [              10.595717392270387,              44.92084404591424            ],            [              11.459725325251242,              44.96301919993289            ],            [              12.082971152304822,              44.926761280035095            ],            [              12.260739756878905,              44.90301848835267            ],            [              12.330426736923357,              44.802246366885214            ],            [              12.594751587487565,              44.900222473252114            ],            [              12.23090812163315,              45.1991789158692            ],            [              12.116023328507254,              45.390693851834556            ],            [              12.839467356534243,              45.501146432420256            ],            [              13.243380550578905,              45.612091587246084            ],            [              13.356590963341205,              45.688812224512844            ],            [              13.646656916025648,              45.67725359023538            ],            [              13.975660397433558,              45.52775653763942            ],            [              13.307263563491546,              45.8529936470031            ],            [              14.065324139886854,              45.496632575108634            ]          ]        ],        "type": "Polygon"      }    },    {      "type": "Feature",      "properties": {},      "geometry": {        "coordinates": [          [            [              8.39685768900631,              46.43326347231283            ],            [              7.946071108786128,              45.918535628382585            ],            [              7.587487401514323,              45.9734985291951            ],            [              7.860725317698723,              45.66711452009514            ],            [              7.380701583418357,              45.53476252545417            ],            [              7.01047554859062,              45.289363797693056            ],            [              6.649818372851769,              45.16925000358495            ],            [              7.05337099960559,              44.80212075416469            ],            [              6.79608369601209,              44.44673646026078            ],            [              7.174623298575199,              44.1276981305069            ],            [              7.656275840888895,              44.164177462790576            ],            [              7.507234998745048,              43.82429473589821            ],            [              7.780816151695149,              44.051875115946245            ],            [              8.004635685843198,              44.13996163245318            ],            [              8.268667623639914,              44.47722081810031            ],            [              8.696086928070486,              44.57474003979678            ],            [              9.03491823803759,              44.64267950286629            ],            [              9.19040009169396,              44.63754784557608            ],            [              8.39685768900631,              46.43326347231283            ]          ]        ],        "type": "Polygon"      }    },    {      "type": "Feature",      "properties": {},      "geometry": {        "coordinates": [          [            [              9.25850170125895,              44.65097470931045            ],            [              9.658812249678448,              44.4006785146407            ],            [              9.9510362477088,              44.42081983891629            ],            [              10.364630882075744,              44.309121598740376            ],            [              10.577346769559625,              44.2051322503884            ],            [              10.953638349940604,              44.15599367506721            ],            [              11.432827731648928,              44.19528071939371            ],            [              11.672455786321763,              44.119338448456716            ],            [              11.798864706260474,              43.87494284890815            ],            [              12.150662969163818,              43.79140787133912            ],            [              12.640241532547805,              44.01600175710209            ],            [              12.333630645568178,              44.272830757705094            ],            [              12.186559297222885,              44.67892409177139            ],            [              12.28673043262458,              44.880672899840846            ],            [              10.797593463773524,              44.922356228333            ],            [              9.502796283838336,              45.09973663182373            ],            [              9.25850170125895,              44.65097470931045            ]          ]        ],        "type": "Polygon"      }    }  ]}