{  "type": "FeatureCollection",  "features": [    {      "type": "Feature",      "properties": {},      "geometry": {        "coordinates": [          [            [              14.065324139886854,              45.496632575108634            ],            [              13.693158292183512,              45.73855836075637            ],            [              13.752979691034312,              45.91690617061937            ],            [              13.66501442539743,              45.96564975486788            ],            [              13.868166438966341,              46.102410617169994            ],            [              13.540750527864276,              46.28724255107278            ],            [              13.928831417895594,              46.490493762072134            ],            [              12.617846482592114,              46.661838538295456            ],            [              12.279194580155206,              47.03376477229375            ],            [              11.596737560765803,              47.004362247651386            ],            [              11.22358150921761,              46.97567794393734            ],            [              11.094264938285448,              46.81556251779557            ],            [              10.59735910703975,              46.86003023006771            ],            [              10.528104223328967,              46.789012760721675            ],            [              10.51950608053258,              46.618253705462166            ],            [              10.245470240081914,              46.61320205315761            ],            [              10.109883267543694,              46.48040058506646            ],            [              10.192900466999788,              46.29121575965891            ],            [              10.053500370533357,              46.36465275804025            ],            [              9.71489658744406,              46.28800174110572            ],            [              9.476025096099562,              46.52292638914008            ],            [              9.307507021807709,              46.515276739350924            ],            [              9.00194061787198,              46.00799671113225            ],            [              9.037653433176416,              45.83854803439584            ],            [              8.453647072512723,              46.4204900440466            ],            [              8.661662682418154,              45.02305377428215            ],            [              9.371003165152928,              44.69914296069476            ],            [              9.429065574638912,              45.08901505611328            ],            [              10.08358139776007,              45.06311647813823            ],            [              10.595717392270387,              44.92084404591424            ],            [              11.459725325251242,              44.96301919993289            ],            [              12.082971152304822,              44.926761280035095            ],            [              12.260739756878905,              44.90301848835267            ],            [              12.330426736923357,              44.802246366885214            ],            [              12.594751587487565,              44.900222473252114            ],            [              12.23090812163315,              45.1991789158692            ],            [              12.116023328507254,              45.390693851834556            ],            [              12.839467356534243,              45.501146432420256            ],            [              13.243380550578905,              45.612091587246084            ],            [              13.356590963341205,              45.688812224512844            ],            [              13.646656916025648,              45.67725359023538            ],            [              13.975660397433558,              45.52775653763942            ],            [              13.307263563491546,              45.8529936470031            ],            [              14.065324139886854,              45.496632575108634            ]          ]        ],        "type": "Polygon"      }    }  ]}