{  "type": "FeatureCollection",  "features": [    {      "type": "Feature",      "properties": {},      "geometry": {        "type": "Polygon",        "coordinates": [          [            [              10.742203104016825,              45.201776750399716            ],            [              10.742203104016825,              45.201776750399716            ],            [              10.742203104016825,              45.201776750399716            ],            [              10.742203104016825,              45.201776750399716            ],            [              10.742203104016825,              45.201776750399716            ],            [              10.742203104016825,              45.201776750399716            ],            [              10.742203104016825,              45.201776750399716            ],            [              10.742203104016825,              45.201776750399716            ],            [              10.742203104016825,              45.201776750399716            ],            [              10.742203104016825,              45.201776750399716            ],            [              10.742203104016825,              45.201776750399716            ],            [              10.742203104016825,              45.201776750399716            ],            [              10.742203104016825,              45.201776750399716            ],            [              10.742203104016825,              45.201776750399716            ],            [              10.742203104016825,              45.201776750399716            ],            [              10.742203104016825,              45.201776750399716            ],            [              10.742203104016825,              45.201776750399716            ],            [              10.742203104016825,              45.201776750399716            ],            [              10.742203104016825,              45.201776750399716            ],            [              10.742203104016825,              45.201776750399716            ],            [              10.742203104016825,              45.201776750399716            ],            [              10.742203104016825,              45.201776750399716            ],            [              10.742203104016825,              45.201776750399716            ],            [              10.742203104016825,              45.201776750399716            ],            [              10.742203104016825,              45.201776750399716            ],            [              10.742203104016825,              45.201776750399716            ],            [              10.742203104016825,              45.201776750399716            ],            [              10.742203104016825,              45.201776750399716            ],            [              10.742203104016825,              45.201776750399716            ],            [              10.742203104016825,              45.201776750399716            ],            [              10.742203104016825,              45.201776750399716            ],            [              10.742203104016825,              45.201776750399716            ],            [              10.742203104016825,              45.201776750399716            ],            [              10.742203104016825,              45.201776750399716            ],            [              10.742203104016825,              45.201776750399716            ],            [              10.742203104016825,              45.201776750399716            ],            [              10.742203104016825,              45.201776750399716            ],            [              10.742203104016825,              45.201776750399716            ],            [              10.742203104016825,              45.201776750399716            ],            [              10.742203104016825,              45.201776750399716            ],            [              10.742203104016825,              45.201776750399716            ],            [              10.742203104016825,              45.201776750399716            ],            [              10.742203104016825,              45.201776750399716            ],            [              10.742203104016825,              45.201776750399716            ],            [              10.742203104016825,              45.201776750399716            ],            [              10.742203104016825,              45.201776750399716            ],            [              10.742203104016825,              45.201776750399716            ],            [              10.742203104016825,              45.201776750399716            ],            [              10.742203104016825,              45.201776750399716            ],            [              10.742203104016825,              45.201776750399716            ],            [              10.742203104016825,              45.201776750399716            ],            [              10.742203104016825,              45.201776750399716            ],            [              10.742203104016825,              45.201776750399716            ],            [              10.742203104016825,              45.201776750399716            ],            [              10.742203104016825,              45.201776750399716            ],            [              10.742203104016825,              45.201776750399716            ],            [              10.742203104016825,              45.201776750399716            ],            [              10.742203104016825,              45.201776750399716            ],            [              10.742203104016825,              45.201776750399716            ],            [              10.742203104016825,              45.201776750399716            ],            [              10.742203104016825,              45.201776750399716            ],            [              10.742203104016825,              45.201776750399716            ],            [              10.742203104016825,              45.201776750399716            ],            [              10.742203104016825,              45.201776750399716            ],            [              10.742203104016825,              45.201776750399716            ]          ]        ]      }    },    {      "type": "Feature",      "properties": {},      "geometry": {        "type": "Polygon",        "coordinates": [          [            [              12.918154435496092,              41.39168091802446            ],            [              12.918154435496092,              41.39168091802446            ],            [              12.918154435496092,              41.39168091802446            ],            [              12.918154435496092,              41.39168091802446            ],            [              12.918154435496092,              41.39168091802446            ],            [              12.918154435496092,              41.39168091802446            ],            [              12.918154435496092,              41.39168091802446            ],            [              12.918154435496092,              41.39168091802446            ],            [              12.918154435496092,              41.39168091802446            ],            [              12.918154435496092,              41.39168091802446            ],            [              12.918154435496092,              41.39168091802446            ],            [              12.918154435496092,              41.39168091802446            ],            [              12.918154435496092,              41.39168091802446            ],            [              12.918154435496092,              41.39168091802446            ],            [              12.918154435496092,              41.39168091802446            ],            [              12.918154435496092,              41.39168091802446            ],            [              12.918154435496092,              41.39168091802446            ],            [              12.918154435496092,              41.39168091802446            ],            [              12.918154435496092,              41.39168091802446            ],            [              12.918154435496092,              41.39168091802446            ],            [              12.918154435496092,              41.39168091802446            ],            [              12.918154435496092,              41.39168091802446            ],            [              12.918154435496092,              41.39168091802446            ],            [              12.918154435496092,              41.39168091802446            ],            [              12.918154435496092,              41.39168091802446            ],            [              12.918154435496092,              41.39168091802446            ],            [              12.918154435496092,              41.39168091802446            ],            [              12.918154435496092,              41.39168091802446            ],            [              12.918154435496092,              41.39168091802446            ],            [              12.918154435496092,              41.39168091802446            ],            [              12.918154435496092,              41.39168091802446            ],            [              12.918154435496092,              41.39168091802446            ],            [              12.918154435496092,              41.39168091802446            ],            [              12.918154435496092,              41.39168091802446            ],            [              12.918154435496092,              41.39168091802446            ],            [              12.918154435496092,              41.39168091802446            ],            [              12.918154435496092,              41.39168091802446            ],            [              12.918154435496092,              41.39168091802446            ],            [              12.918154435496092,              41.39168091802446            ],            [              12.918154435496092,              41.39168091802446            ],            [              12.918154435496092,              41.39168091802446            ],            [              12.918154435496092,              41.39168091802446            ],            [              12.918154435496092,              41.39168091802446            ],            [              12.918154435496092,              41.39168091802446            ],            [              12.918154435496092,              41.39168091802446            ],            [              12.918154435496092,              41.39168091802446            ],            [              12.918154435496092,              41.39168091802446            ],            [              12.918154435496092,              41.39168091802446            ],            [              12.918154435496092,              41.39168091802446            ],            [              12.918154435496092,              41.39168091802446            ],            [              12.918154435496092,              41.39168091802446            ],            [              12.918154435496092,              41.39168091802446            ],            [              12.918154435496092,              41.39168091802446            ],            [              12.918154435496092,              41.39168091802446            ],            [              12.918154435496092,              41.39168091802446            ],            [              12.918154435496092,              41.39168091802446            ],            [              12.918154435496092,              41.39168091802446            ],            [              12.918154435496092,              41.39168091802446            ],            [              12.918154435496092,              41.39168091802446            ],            [              12.918154435496092,              41.39168091802446            ],            [              12.918154435496092,              41.39168091802446            ],            [              12.918154435496092,              41.39168091802446            ],            [              12.918154435496092,              41.39168091802446            ],            [              12.918154435496092,              41.39168091802446            ],            [              12.918154435496092,              41.39168091802446            ]          ]        ]      }    },    {      "type": "Feature",      "properties": {},      "geometry": {        "type": "Polygon",        "coordinates": [          [            [              12.978230738957592,              41.5657399155312            ],            [              12.962083617436999,              41.56514527091444            ],            [              12.946092884695437,              41.56336709646726            ],            [              12.930413389183286,              41.56042261366541            ],            [              12.915196914867119,              41.556340336452905            ],            [              12.900590689212159,              41.55115979054734            ],            [              12.88673593885211,              41.5449311245974            ],            [              12.873766507884874,              41.537714617258395            ],            [              12.861807552937192,              41.52958008532295            ],            [              12.850974328176656,              41.52060619905069            ],            [              12.84137107233492,              41.510879711770215            ],            [              12.833090008561802,              41.50049461166885            ],            [              12.82621046657909,              41.48955120443242            ],            [              12.820798135168852,              41.47815513604118            ],            [              12.816904451537686,              41.466416365563624            ],            [              12.814566132569439,              41.45444809821474            ],            [              12.813804851437093,              41.44236568925649            ],            [              12.814627061511132,              41.43028552951664            ],            [              12.817023967996285,              41.4183239233888            ],            [              12.820971646268298,              41.406595970153695            ],            [              12.826431304482366,              41.39521445933438            ],            [              12.833349686697376,              41.384288790570196            ],            [              12.8416596115149,              41.37392392817202            ],            [              12.85128064007659,              41.364219400110734            ],            [              12.862119866202825,              41.35526835069894            ],            [              12.874072820492554,              41.347156655659504            ],            [              12.88702447933983,              41.339962107640936            ],            [              12.900850369056377,              41.33375367954573            ],            [              12.915417754619819,              41.328590872291144            ],            [              12.930586901991378,              41.32452315282932            ],            [              12.946212402461779,              41.32158948742147            ],            [              12.962144547086435,              41.31981797429658            ],            [              12.978230738957592,              41.31922557893378            ],            [              12.99431693082875,              41.31981797429658            ],            [              13.010249075453409,              41.32158948742147            ],            [              13.02587457592381,              41.32452315282932            ],            [              13.041043723295367,              41.328590872291144            ],            [              13.055611108858809,              41.33375367954573            ],            [              13.069436998575357,              41.339962107640936            ],            [              13.082388657422634,              41.347156655659504            ],            [              13.094341611712363,              41.35526835069894            ],            [              13.105180837838597,              41.364219400110734            ],            [              13.114801866400285,              41.37392392817202            ],            [              13.123111791217811,              41.384288790570196            ],            [              13.130030173432822,              41.39521445933438            ],            [              13.13548983164689,              41.406595970153695            ],            [              13.139437509918903,              41.4183239233888            ],            [              13.141834416404055,              41.43028552951664            ],            [              13.142656626478095,              41.44236568925649            ],            [              13.141895345345748,              41.45444809821474            ],            [              13.139557026377501,              41.466416365563624            ],            [              13.135663342746334,              41.47815513604118            ],            [              13.130251011336098,              41.48955120443242            ],            [              13.123371469353385,              41.50049461166885            ],            [              13.115090405580267,              41.510879711770215            ],            [              13.105487149738533,              41.52060619905069            ],            [              13.094653924977996,              41.52958008532295            ],            [              13.082694970030314,              41.537714617258395            ],            [              13.069725539063077,              41.5449311245974            ],            [              13.055870788703027,              41.55115979054734            ],            [              13.041264563048069,              41.556340336452905            ],            [              13.026048088731901,              41.56042261366541            ],            [              13.01036859321975,              41.56336709646726            ],            [              12.994377860478188,              41.56514527091444            ],            [              12.978230738957592,              41.5657399155312            ]          ]        ]      }    },    {      "type": "Feature",      "properties": {},      "geometry": {        "type": "Polygon",        "coordinates": [          [            [              10.754603105280664,              45.32363745181731            ],            [              10.73784127906347,              45.323057248452656            ],            [              10.721241898646472,              45.32132226148512            ],            [              10.704965805841201,              45.31844930476382            ],            [              10.689170651478404,              45.31446621685834            ],            [              10.67400934218309,              45.309411586344005            ],            [              10.65962853724073,              45.303334371279526            ],            [              10.64616721122005,              45.29629341689099            ],            [              10.633755297161699,              45.288356876531154            ],            [              10.622512424105288,              45.279601541972426            ],            [              10.61254676153121,              45.270112090004424            ],            [              10.603953981961057,              45.259980253130635            ],            [              10.596816351516873,              45.24930392288706            ],            [              10.591201956710945,              45.238186194929746            ],            [              10.587164074150664,              45.22673436555576            ],            [              10.584740688223484,              45.215058889726826            ],            [              10.583954160199557,              45.20327231095902            ],            [              10.584811050577864,              45.19148817362261            ],            [              10.587302094925983,              45.179819928267456            ],            [              10.591402331942993,              45.16837984055352            ],            [              10.597071381024309,              45.15727791422756            ],            [              10.6042538652398,              45.14662083835111            ],            [              10.612879974361487,              45.13651096865797            ],            [              10.622866161401683,              45.12704535250814            ],            [              10.634115965050672,              45.11831480641494            ],            [              10.64652094943689,              45.11040305456362            ],            [              10.659961751771768,              45.10338593611565            ],            [              10.674309227683986,              45.097330688414964            ],            [              10.689425683391082,              45.0922953124838            ],            [              10.705166183295407,              45.088328026425756            ],            [              10.721379921122555,              45.08546681154766            ],            [              10.7379116423383,              45.083739055176274            ],            [              10.754603105280664,              45.083161293285976            ],            [              10.771294568223027,              45.083739055176274            ],            [              10.78782628943877,              45.08546681154766            ],            [              10.804040027265922,              45.088328026425756            ],            [              10.819780527170247,              45.0922953124838            ],            [              10.83489698287734,              45.097330688414964            ],            [              10.84924445878956,              45.10338593611565            ],            [              10.862685261124435,              45.11040305456362            ],            [              10.875090245510656,              45.11831480641494            ],            [              10.886340049159646,              45.12704535250814            ],            [              10.896326236199839,              45.13651096865797            ],            [              10.90495234532153,              45.14662083835111            ],            [              10.91213482953702,              45.15727791422756            ],            [              10.917803878618335,              45.16837984055352            ],            [              10.921904115635343,              45.179819928267456            ],            [              10.924395159983462,              45.19148817362261            ],            [              10.925252050361768,              45.20327231095902            ],            [              10.924465522337842,              45.215058889726826            ],            [              10.922042136410665,              45.22673436555576            ],            [              10.918004253850384,              45.238186194929746            ],            [              10.912389859044453,              45.24930392288706            ],            [              10.905252228600268,              45.259980253130635            ],            [              10.896659449030116,              45.270112090004424            ],            [              10.88669378645604,              45.279601541972426            ],            [              10.875450913399627,              45.288356876531154            ],            [              10.863038999341278,              45.29629341689099            ],            [              10.849577673320598,              45.303334371279526            ],            [              10.835196868378237,              45.309411586344005            ],            [              10.820035559082923,              45.31446621685834            ],            [              10.804240404720126,              45.31844930476382            ],            [              10.787964311914855,              45.32132226148512            ],            [              10.771364931497855,              45.323057248452656            ],            [              10.754603105280664,              45.32363745181731            ]          ]        ]      }    },    {      "type": "Feature",      "properties": {},      "geometry": {        "type": "Polygon",        "coordinates": [          [            [              17.20107588710019,              40.824605717000516            ],            [              17.181216377682233,              40.823865731622135            ],            [              17.161549442592545,              40.821652951208875            ],            [              17.142265750463554,              40.81798883190387            ],            [              17.1235521788971,              40.812908897963595            ],            [              17.105589969574744,              40.8064623904333            ],            [              17.088552943348887,              40.79871178055208            ],            [              17.07260579404324,              40.789732153061664            ],            [              17.057902478642628,              40.77961046594973            ],            [              17.044584720284163,              40.76844469442986            ],            [              17.032780639001537,              40.756342868128456            ],            [              17.02260352355029,              40.74342201150203            ],            [              17.01415075588719,              40.72980699843491            ],            [              17.0075028980231,              40.71562933275989            ],            [              17.002722949050103,              40.7010258670944            ],            [              16.99985577819155,              40.68613747289288            ],            [              16.99892773776938,              40.67110767497631            ],            [              16.999946458054644,              40.656081264017274            ],            [              17.002900824089764,              40.64120290053403            ],            [              17.007761132767158,              40.62661572388573            ],            [              17.014479426735942,              40.61245997956847            ],            [              17.02299000010189,              40.598871677797234            ],            [              17.033210069395537,              40.58598129592763            ],            [              17.0450406019172,              40.573912536735726            ],            [              17.05836729232897,              40.562781153940556            ],            [              17.0730616772536,              40.55269385563367            ],            [              17.08898237665739,              40.543747295481616            ],            [              17.105976449934328,              40.536027160699774            ],            [              17.123880853867586,              40.529607364869385            ],            [              17.1425239890156,              40.52454935269093            ],            [              17.161727320546714,              40.52090152274564            ],            [              17.18130705912265,              40.518698773279525            ],            [              17.20107588710019,              40.51796217493904            ],            [              17.220844715077728,              40.518698773279525            ],            [              17.240424453653663,              40.52090152274564            ],            [              17.259627785184776,              40.52454935269093            ],            [              17.27827092033279,              40.529607364869385            ],            [              17.29617532426605,              40.536027160699774            ],            [              17.313169397542985,              40.543747295481616            ],            [              17.329090096946775,              40.55269385563367            ],            [              17.343784481871406,              40.562781153940556            ],            [              17.357111172283176,              40.573912536735726            ],            [              17.368941704804843,              40.58598129592763            ],            [              17.379161774098485,              40.598871677797234            ],            [              17.387672347464434,              40.61245997956847            ],            [              17.394390641433223,              40.62661572388573            ],            [              17.399250950110613,              40.64120290053403            ],            [              17.402205316145732,              40.656081264017274            ],            [              17.403224036430995,              40.67110767497631            ],            [              17.402295996008828,              40.68613747289288            ],            [              17.399428825150274,              40.7010258670944            ],            [              17.394648876177282,              40.71562933275989            ],            [              17.388001018313187,              40.72980699843491            ],            [              17.379548250650085,              40.74342201150203            ],            [              17.36937113519884,              40.756342868128456            ],            [              17.357567053916217,              40.76844469442986            ],            [              17.344249295557752,              40.77961046594973            ],            [              17.329545980157135,              40.789732153061664            ],            [              17.313598830851486,              40.79871178055208            ],            [              17.296561804625636,              40.8064623904333            ],            [              17.278599595303277,              40.812908897963595            ],            [              17.259886023736822,              40.81798883190387            ],            [              17.240602331607832,              40.821652951208875            ],            [              17.220935396518147,              40.823865731622135            ],            [              17.20107588710019,              40.824605717000516            ]          ]        ]      }    },    {      "type": "Feature",      "properties": {},      "geometry": {        "type": "Polygon",        "coordinates": [          [            [              11.657954097799232,              44.089682630008575            ],            [              11.642668526216266,              44.08914224904278            ],            [              11.627530993127623,              44.08752633976452            ],            [              11.61268807918583,              44.08485055148604            ],            [              11.598283464656866,              44.081140795117925            ],            [              11.584456517272061,              44.076432988141924            ],            [              11.571340925185018,              44.070772701322376            ],            [              11.55906338916536,              44.064214710848034            ],            [              11.547742387410088,              44.05682246056866            ],            [              11.537487025442912,              44.04866743990545            ],            [              11.528395982519369,              44.03982848385803            ],            [              11.52055656478073,              44.03039100229726            ],            [              11.514043874123493,              44.02044614641068            ],            [              11.508920100396237,              44.010089920753664            ],            [              11.505233943124129,              43.999422249846496            ],            [              11.503020167515729,              43.98854600864406            ],            [              11.502299298048422,              43.97756602648896            ],            [              11.50307745147803,              43.96658807433943            ],            [              11.505346309693163,              43.95571784514337            ],            [              11.50908323145239,              43.945059937210125            ],            [              11.514251500716197,              43.93471685031613            ],            [              11.520800708027856,              43.92478800407474            ],            [              11.52866726021728,              43.91536878780808            ],            [              11.537775012606437,              43.90654965078582            ],            [              11.548036016889009,              43.89841524124955            ],            [              11.559351376943471,              43.891043602126544            ],            [              11.571612204018543,              43.884505430761116            ],            [              11.584700662002941,              43.87886340936104            ],            [              11.598491092855573,              43.87417161217809            ],            [              11.612851211725735,              43.87047499472085            ],            [              11.627643360832273,              43.86780896954165            ],            [              11.64272581079316,              43.86619907235353            ],            [              11.657954097799232,              43.8656607214227            ],            [              11.673182384805303,              43.86619907235353            ],            [              11.68826483476619,              43.86780896954165            ],            [              11.703056983872727,              43.87047499472085            ],            [              11.717417102742893,              43.87417161217809            ],            [              11.731207533595525,              43.87886340936104            ],            [              11.744295991579921,              43.884505430761116            ],            [              11.75655681865499,              43.891043602126544            ],            [              11.767872178709453,              43.89841524124955            ],            [              11.778133182992029,              43.90654965078582            ],            [              11.787240935381185,              43.91536878780808            ],            [              11.79510748757061,              43.92478800407474            ],            [              11.801656694882267,              43.93471685031613            ],            [              11.806824964146076,              43.945059937210125            ],            [              11.810561885905301,              43.95571784514337            ],            [              11.812830744120433,              43.96658807433943            ],            [              11.813608897550042,              43.97756602648896            ],            [              11.812888028082735,              43.98854600864406            ],            [              11.810674252474335,              43.999422249846496            ],            [              11.806988095202229,              44.010089920753664            ],            [              11.801864321474973,              44.02044614641068            ],            [              11.795351630817734,              44.03039100229726            ],            [              11.787512213079093,              44.03982848385803            ],            [              11.778421170155552,              44.04866743990545            ],            [              11.768165808188375,              44.05682246056866            ],            [              11.756844806433106,              44.064214710848034            ],            [              11.744567270413446,              44.070772701322376            ],            [              11.731451678326401,              44.076432988141924            ],            [              11.717624730941596,              44.081140795117925            ],            [              11.703220116412636,              44.08485055148604            ],            [              11.68837720247084,              44.08752633976452            ],            [              11.673239669382196,              44.08914224904278            ],            [              11.657954097799232,              44.089682630008575            ]          ]        ]      }    }  ]}